{
    "links": {
        "self": "http://www.neowsapp.com/rest/v1/neo/3648870?api_key=iIulBulltgU6a56xZRHN4H3l9WmuAYTsLGpBGhQ2"
    },
    "id": "3648870",
    "neo_reference_id": "3648870",
    "name": "(2013 TA6)",
    "designation": "2013 TA6",
    "nasa_jpl_url": "http://ssd.jpl.nasa.gov/sbdb.cgi?sstr=3648870",
    "absolute_magnitude_h": 24.7,
    "estimated_diameter": {
        "kilometers": {
            "estimated_diameter_min": 0.0305179233,
            "estimated_diameter_max": 0.0682401509
        },
        "meters": {
            "estimated_diameter_min": 30.5179232594,
            "estimated_diameter_max": 68.2401509401
        },
        "miles": {
            "estimated_diameter_min": 0.0189629525,
            "estimated_diameter_max": 0.0424024508
        },
        "feet": {
            "estimated_diameter_min": 100.1244233463,
            "estimated_diameter_max": 223.8850168104
        }
    },
    "is_potentially_hazardous_asteroid": false,
    "close_approach_data": [
        {
            "close_approach_date": "2013-10-07",
            "close_approach_date_full": "2013-Oct-07 03:45",
            "epoch_date_close_approach": 1381117500000,
            "relative_velocity": {
                "kilometers_per_second": "11.5779542984",
                "kilometers_per_hour": "41680.6354741601",
                "miles_per_hour": "25898.7259700413"
            },
            "miss_distance": {
                "astronomical": "0.0651135855",
                "lunar": "25.3291847595",
                "kilometers": "9740853.698862885",
                "miles": "6052685.821702413"
            },
            "orbiting_body": "Earth"
        }
    ],
    "orbital_data": {
        "orbit_id": "8",
        "orbit_determination_date": "2017-04-06 08:44:19",
        "first_observation_date": "2013-10-04",
        "last_observation_date": "2013-10-12",
        "data_arc_in_days": 8,
        "observations_used": 31,
        "orbit_uncertainty": "8",
        "minimum_orbit_intersection": ".0630713",
        "jupiter_tisserand_invariant": "3.755",
        "epoch_osculation": "2456571.5",
        "eccentricity": ".4452175973408007",
        "semi_major_axis": "1.90808797608693",
        "inclination": "18.58969143855868",
        "ascending_node_longitude": "194.0642715743848",
        "orbital_period": "962.7111883639002",
        "perihelion_distance": "1.058573631858636",
        "perihelion_argument": "189.2626635484602",
        "aphelion_distance": "2.757602320315225",
        "perihelion_time": "2456580.468427945222",
        "mean_anomaly": "356.64631085698",
        "mean_motion": ".3739439245655902",
        "equinox": "J2000",
        "orbit_class": {
            "orbit_class_type": "AMO",
            "orbit_class_description": "Near-Earth asteroid orbits similar to that of 1221 Amor",
            "orbit_class_range": "1.017 AU < q (perihelion) < 1.3 AU"
        }
    },
    "is_sentry_object": false
}